#dP2024  3 24  0  0  0.00000000     289 d+D   IGS20 FIT AIUB
## 2307      0.00000000   300.00000000 60393 0.0000000000000
+  121   G01G02G03G04G05G06G07G08G09G10G11G12G13G14G15G16G17
+        G18G19G20G21G22G23G24G25G26G27G28G29G30G31G32R01R02
+        R03R04R05R07R08R09R11R12R13R14R15R16R17R18R19R20R21
+        R22R24R25R26E02E03E04E05E07E08E09E10E11E12E13E14E15
+        E18E19E21E24E25E26E27E30E31E33E34E36C06C07C08C09C10
+        C11C12C13C14C16C19C20C21C22C23C24C25C26C27C28C29C30
+        C32C33C34C35C36C37C38C39C40C41C42C43C44C45C46C48J02
+        J03J04  0  0  0  0  0  0  0  0  0  0  0  0  0  0  0
++         5  5  5  5  5  5  5  5  5  5  5  5  5  5  6  5  5
++         5  5  5  5  5  5  5  5  5  5  5  5  5  5  5  5  5
++         5  5  5  5  5  5  5  5  5  5  5  5  5  5  5  5  5
++         5  5  5  5  5  5  5  5  5  5  5  5  5  5  5  5  5
++         5  5  5  5  5  5  5  5  5  5  5  5  5  5  5  5  5
++         5  5  5  5  5  5  5  5  5  5  5  5  5  5  5  5  5
++         5  5  5  5  5  5  5  5  5  5  5  5  5  5  5  5  5
++         5  5  0  0  0  0  0  0  0  0  0  0  0  0  0  0  0
%c M  cc GPS ccc cccc cccc cccc cccc ccccc ccccc ccccc ccccc
%c cc cc ccc ccc cccc cccc cccc cccc ccccc ccccc ccccc ccccc
%f  1.2500000  1.025000000  0.00000000000  0.000000000000000
%f  0.0000000  0.000000000  0.00000000000  0.000000000000000
%i    0    0    0    0      0      0      0      0         0
%i    0    0    0    0      0      0      0      0         0
/* Center for Orbit Determination in Europe (CODE)                              
/* MGEX orbits and clocks for year-day 2024-0840                                
/* Middle day of a 3-day long-arc multi-GNSS solution                           
/* Systems considered: GPS/GLONASS/Galileo/BeiDou/QZSS                          
/* Product reference - DOI 10.48350/185742                                      
/* PCV:IGS20      OL/AL:FES2014b NONE     YN ORB:CoN CLK:CoN                    
*  2024  3 24 18 55  0.00000000
PG01  12295.144516  -9012.154516  21355.633324    175.762567
PG02  16161.980686   1396.917403  21564.497775   -464.926311
PG03  21536.018580  -9881.348126  11730.587662    271.307551
PG04  24527.776972    415.636778 -10333.653883    322.670947
PG05 -16946.096460  -2467.011674 -20498.763358   -166.595676
PG06  -5315.350124 -25934.517824   1191.287018    353.562594
PG07   7553.277617 -18652.317564 -16588.357242    -91.747034
PG08  26148.208926   5714.635742   1167.300656     77.654466
PG09  15339.942066 -10046.154926 -19313.594712    135.967315
PG10  -6029.702962  20480.637515  15796.043318     -2.345187
PG11 -11847.616014 -21185.122654 -10815.186800   -616.535906
PG12 -22167.406808   7608.136397  12151.369983   -490.223271
PG13 -22041.231322 -14029.067292  -5613.438440    636.949632
PG14   9825.708841 -21215.399241  12440.525126    358.870410
PG15 -26479.336039  -3009.729212    538.183953    141.103344
PG16  13493.241218   8472.991862 -21645.518599   -333.454269
PG17   2183.084185 -15259.521067  22038.472377    712.404511
PG18  -6995.301632  19489.240093 -16511.068084   -581.828367
PG19  -8573.724167 -17099.296905  18397.149008    458.539900
PG20  -8750.629005 -13493.294035 -21099.003654    382.729997
PG21  17152.451563   7818.841393  19547.734647    130.063877
PG22   3296.862104 -19271.877836  18532.748233     10.944396
PG23 -15688.035897  20751.123788   4853.522295    184.624219
PG24 -16896.290864  -3860.344259  19815.761766   -450.730173
PG25 -20213.437660  16527.094385   3662.068210    492.137151
PG26   4231.734920  17340.067844 -19710.932633    175.547530
PG27  21151.113824  13176.472894 -10072.153816    -14.115937
PG28   4598.991019  25874.348271   3847.093108   -176.620268
PG29 -17790.243249   6918.877467 -18565.405447   -603.927008
PG30     94.319209 -25041.609781  -8297.899482   -415.168111
PG31  10104.509380  23487.731273  -6579.504611   -228.009508
PG32   2316.185266  16047.172429  21279.378385   -616.763632
PR01   7793.081438   9665.125933  22287.555457     80.570974
PR02  22365.318882   3457.376035  11882.941201    -22.632153
PR03  24440.409318  -5075.612190  -5338.282666     96.971684
PR04  13171.020940 -10224.227253 -19272.796646    229.002329
PR05  -5142.030272 -10139.883012 -22814.117736    128.926308
PR07 -24062.991084   5498.942269   6384.842186     78.682749
PR08 -12755.078534  10512.802504  19482.447690    -74.842092
PR09  -9986.872731  -5480.319366  22835.769782    177.167103
PR11 -11449.251785  22554.497735   3375.212027     30.185584
PR12  -1038.202144  20469.741845 -15155.562303     38.194107
PR13   8423.070991   8071.916149 -22701.325394    -45.606230
PR14  14320.729568 -12020.198312 -17335.157048     26.269740
PR15  11015.239764 -22933.685313  -1785.236778     81.087746
PR16   1169.076461 -20565.378094  15026.806853     24.280977
PR17  12538.776681     85.376589  22213.339126     71.883773
PR18   1686.408936 -14216.863986  21108.843184    133.778928
PR19  -8422.164663 -21570.382964  10692.164286   -270.569531
PR20 -16319.070966 -16654.864902 -10280.414631   -110.283169
PR21 -12452.704235   -192.240729 -22266.189485    -87.155713
PR22  -1501.875607  15228.948581 -20388.883890    114.376053
PR24  17230.894103  15459.429942  10718.929719    -49.062082
PR25 -12701.928635   -292.800247 -22117.546688    -24.771268
PR26 -13789.490151  10391.061231  18811.847648    -28.546256
PE02  -5128.061564 -17253.500013  23490.723633    113.866517
PE03 -16719.300795 -17598.674052 -16945.233227   -102.533167
PE04  28376.536952   8397.020598   -570.595889   -357.326434
PE05   4525.741300 -16348.374314 -24248.118079   4732.126280
PE07 -23535.161827   5268.539494  17179.893179   -110.731975
PE08 -28248.676802  -8865.600839   -145.838948   -244.066086
PE09  23561.529285  -5097.711765 -17159.268599   -382.241458
PE10  16328.780457    408.978761  24680.679915   -611.812556
PE11  13173.526592 -11591.906949  23824.389305   3133.651900
PE12  16828.278101  11082.420887  21690.275538   -963.162140
PE13 -13352.781374  10928.974146 -24050.017265    -20.677411
PE14 -18774.397122 -18088.812189  12910.827343     75.687942
PE15 -16725.181902 -11635.869386 -21460.404635    -93.094445
PE18   5605.741486  19324.077241 -19152.887522    472.563337
PE19  14604.960146  17976.052782  18444.440083   -371.724074
PE21 -12738.790045  23532.439615 -12658.114625   -585.638206
PE24  24111.539631 -15971.599330  -6380.600445   -669.232537
PE25  13089.751127 -23525.849371  12307.795920      2.515743
PE26  -1912.273375  27012.438105 -11957.558428    405.882167
PE27 -23952.043476  16299.698010   6034.021913   -306.949114
PE30 -20835.351603   -721.501821  20990.719885   -128.136896
PE31  20915.421824    450.090434 -20943.464120    -19.066780
PE33   9954.378851  27265.542375   5817.778445      9.476302
PE34 -10294.743810 -27019.073319  -6337.269509   -101.792793
PE36   2253.232926 -26701.158974  12558.697644   -203.766664
PC06   -721.468960  35689.766101  22732.216681    295.976913
PC07 -14544.436596  26660.451721 -29230.994239   -884.866453
PC08 -17643.434776  37312.017138   8065.867997     34.285648
PC09   3361.636493  38785.844985  17415.878877   -666.237093
PC10  -5778.858289  27548.800160 -31141.139687     31.040576
PC11  15776.670663  -5214.272960  22484.207638    476.625988
PC12  22570.060734  12204.863159  11013.729239   -219.463376
PC13 -10880.936989  37633.597152  15382.804442    426.976878
PC14  24987.788231 -11137.205910  -5316.432101    481.699653
PC16  -4202.533486  32969.071114  26431.107103   -415.988359
PC19 -18880.705189  15263.472413  13815.829552   -917.484790
PC20 -27100.927146   6348.903700  -2252.372694   -289.880466
PC21  19531.211236   7358.251380  18528.034372   -961.603443
PC22    639.179352  15945.928288  22897.867413    -63.203762
PC23   1606.476290 -27059.699645   6637.206981   -775.822669
PC24  17122.424409  -4433.311884 -21608.426990    950.402371
PC25  12492.116352 -22758.113771 -10275.173062    357.571014
PC26  11588.662992  15320.688871 -20250.072182   -267.464367
PC27 -21167.059755 -17988.318296  -2613.015908    289.252645
PC28 -10430.694962 -22536.808459  12728.724040    220.773463
PC29  -8661.101643  13699.392602 -22724.781614    258.920080
PC30 -21792.800663  -3391.368345 -17093.334836    -43.631825
PC32 -19573.886458  -7214.822423 -18525.232027   -588.877246
PC33  18835.787324 -15347.348365 -13697.229163   -961.870907
PC34  21218.805922   1971.738455  18015.146714    397.200221
PC35  11089.108890  22178.204150 -12858.291317    403.390486
PC36 -13158.167366  22233.855339  10554.332957     29.131813
PC37 -11026.947038 -15963.056597  20072.275902   -948.559553
PC38 -20790.942894  36602.805767     60.522940    144.716886
PC39  -7159.885487  28937.425294  29976.350885     -7.729010
PC40 -20285.644823  19865.657457 -31270.952197    -62.304732
PC41    214.432324 -16139.952109 -22702.815143   -911.479009
PC42  27110.659190  -5239.919643   3955.435830   -445.510947
PC43   9616.036362 -13048.286459  22701.862776     65.342152
PC44  21797.500439  17289.812391   2377.915093    423.046364
PC45  -1654.864569  27017.765208  -6744.807661    -77.232939
PC46 -17051.762988   5319.584113  21421.743173   -134.355738
PC48 -24887.536317  11375.120503   5490.623389     97.798707
PJ02 -35895.396485  21677.830683    225.806520     -3.263365
PJ03 -20381.596315  23525.038348 -23837.196351     -0.157731
PJ04 -27769.604930  30134.966252  15946.536573     50.613210
EOF
